0 SL-8 DEB
1 22843U 91009CN  13280.47460212  .00000203  00000-0  15423-2 0    03
2 22843 074.0260 293.5804 0231813 063.4745 088.9629 12.37062922919519
0 SL-8 DEB
1 22843U 91009CN  13283.03491749  .00000280  00000-0  20864-2 0    18
2 22843 074.0253 290.2551 0231893 059.6744 331.1888 12.37064348919837
0 SL-8 DEB
1 22843U 91009CN  13285.48850027  .00000266  00000-0  19907-2 0    28
2 22843 074.0251 287.0680 0232149 056.0443 098.0882 12.37066316920139
0 SL-8 DEB
1 22843U 91009CN  13287.42790196  .00000289  00000-0  21543-2 0    39
2 22843 074.0247 284.5487 0232368 053.1930 095.1026 12.37067812920379
0 SL-8 DEB
1 22843U 91009CN  13289.45045194  .00000318  00000-0  23607-2 0    42
2 22843 074.0252 281.9213 0232543 050.2231 102.4233 12.37069341920629
0 SL-8 DEB
1 22843U 91009CN  13291.39078890  .00000400  00000-0  29387-2 0    51
2 22843 074.0255 279.4010 0232812 047.3655 103.6301 12.37070168920869
0 SL-8 DEB
1 22843U 91009CN  13293.41523909  .00000537  00000-0  39136-2 0    67
2 22843 074.0258 276.7717 0233004 044.3974 119.4349 12.37071856921112
